NORAD_CAT_ID,OBJECT_NAME,OBJECT_TYPE,EPOCH,MEAN_MOTION,ECCENTRICITY,INCLINATION,RA_OF_ASC_NODE,ARG_OF_PERICENTER,MEAN_ANOMALY,BSTAR,MEAN_MOTION_DOT,MEAN_MOTION_DDOT,TLE_LINE0,TLE_LINE1,TLE_LINE2,SEMIMAJOR_AXIS,PERIOD,APOGEE,PERIGEE,DECAYED
56471.0,STARLINK-5521,PAYLOAD,2024-03-13 12:28:46,14.98331695,0.0002693,70.0008,155.4906,265.5926,94.4926,8.8526e-05,9.64e-06,0.0,0 STARLINK-5521,1 56471U 23064Z   24073.51998527  .00000964  00000-0  88526-4 0  9992,2 56471  70.0008 155.4906 0002693 265.5926  94.4926 14.98331695 46963,6950.188,96.107,573.924,570.181,0.0
56471.0,STARLINK-5521,PAYLOAD,2024-03-14 04:30:07,14.98348008,0.0002897,70.0007,153.8081,267.1588,92.924,-0.00027761,-3.405e-05,0.0,0 STARLINK-5521,1 56471U 23064Z   24074.18758694 -.00003405  00000-0 -27761-3 0  9993,2 56471  70.0007 153.8081 0002897 267.1588  92.9240 14.98348008 47426,6950.137,96.106,574.016,569.989,0.0
56471.0,STARLINK-5521,PAYLOAD,2024-03-14 06:06:15,14.98329359,0.0002832,70.0006,153.6398,268.0359,92.0476,1.4166e-05,7.6e-07,0.0,0 STARLINK-5521,1 56471U 23064Z   24074.25434784  .00000076  00000-0  14166-4 0  9997,2 56471  70.0006 153.6398 0002832 268.0359  92.0476 14.98329359 47070,6950.195,96.107,574.028,570.092,0.0
56471.0,STARLINK-5521,PAYLOAD,2024-03-14 12:30:47,14.983296,0.0002837,70.0005,152.9665,268.0981,91.9853,1.4256e-05,7.7e-07,0.0,0 STARLINK-5521,1 56471U 23064Z   24074.52138760  .00000077  00000-0  14256-4 0  9993,2 56471  70.0005 152.9665 0002837 268.0981  91.9853 14.98329600 47474,6950.194,96.107,574.031,570.087,0.0
56471.0,STARLINK-5521,PAYLOAD,2024-03-15 10:56:40,14.98329778,0.000292,70.0002,150.6095,266.4756,93.6069,-2.614e-05,-4.05e-06,0.0,0 STARLINK-5521,1 56471U 23064Z   24075.45602748 -.00000405  00000-0 -26140-4 0  9990,2 56471  70.0002 150.6095 0002920 266.4756  93.6069 14.98329778 47258,6950.194,96.107,574.088,570.029,0.0
56471.0,STARLINK-5521,PAYLOAD,2024-03-16 12:34:49,14.98330281,0.0003053,69.9996,147.9161,268.519,91.5619,5.2056e-06,-3.1e-07,0.0,0 STARLINK-5521,1 56471U 23064Z   24076.52418615 -.00000031  00000-0  52056-5 0  9997,2 56471  69.9996 147.9161 0003053 268.5190  91.5619 14.98330281 47779,6950.192,96.107,574.179,569.935,0.0
56471.0,STARLINK-5521,PAYLOAD,2024-03-16 14:10:57,14.98330666,0.0003085,69.9995,147.7476,269.8008,90.2798,7.9636e-06,2e-08,0.0,0 STARLINK-5521,1 56471U 23064Z   24076.59094584  .00000002  00000-0  79636-5 0  9999,2 56471  69.9995 147.7476 0003085 269.8008  90.2798 14.98330666 47425,6950.191,96.107,574.2,569.912,0.0
56471.0,STARLINK-5521,PAYLOAD,2024-03-17 12:36:50,14.98330172,0.0003028,69.9996,145.3913,267.1712,92.91,2.8137e-05,2.43e-06,0.0,0 STARLINK-5521,1 56471U 23064Z   24077.52558586  .00000243  00000-0  28137-4 0  9996,2 56471  69.9996 145.3913 0003028 267.1712  92.9100 14.98330172 47929,6950.192,96.107,574.162,569.953,0.0
56471.0,STARLINK-5521,PAYLOAD,2024-03-17 14:12:58,14.98330545,0.0003025,69.9996,145.2231,267.1543,92.927,3.2131e-05,2.9e-06,0.0,0 STARLINK-5521,1 56471U 23064Z   24077.59234548  .00000290  00000-0  32131-4 0  9993,2 56471  69.9996 145.2231 0003025 267.1543  92.9270 14.98330545 47573,6950.191,96.107,574.159,569.954,0.0
56471.0,STARLINK-5521,PAYLOAD,2024-03-18 11:02:43,14.98331664,0.0003029,69.9994,143.0351,267.0317,93.0495,1.3259e-05,6.5e-07,0.0,0 STARLINK-5521,1 56471U 23064Z   24078.46022454  .00000065  00000-0  13259-4 0  9991,2 56471  69.9994 143.0351 0003029 267.0317  93.0495 14.98331664 47701,6950.188,96.107,574.158,569.948,0.0
56471.0,STARLINK-5521,PAYLOAD,2024-03-19 11:04:44,14.98333802,0.0002959,69.9995,140.5107,263.991,96.0912,2.7817e-05,2.39e-06,0.0,0 STARLINK-5521,1 56471U 23064Z   24079.46162109  .00000239  00000-0  27817-4 0  9992,2 56471  69.9995 140.5107 0002959 263.9910  96.0912 14.98333802 47857,6950.181,96.107,574.103,569.99,0.0
56471.0,STARLINK-5521,PAYLOAD,2024-03-19 12:40:51,14.98336406,0.0002929,69.9995,140.3425,262.8294,97.2532,5.6886e-05,5.86e-06,0.0,0 STARLINK-5521,1 56471U 23064Z   24079.52837828  .00000586  00000-0  56886-4 0  9999,2 56471  69.9995 140.3425 0002929 262.8294  97.2532 14.98336406 48224,6950.173,96.107,574.074,570.002,0.0
56471.0,STARLINK-5521,PAYLOAD,2024-03-20 09:30:37,14.98321404,0.0002721,69.9999,138.1549,257.834,102.2514,-0.00010492,-1.344e-05,0.0,0 STARLINK-5521,1 56471U 23064Z   24080.39627265 -.00001344  00000-0 -10492-3 0  9995,2 56471  69.9999 138.1549 0002721 257.8340 102.2514 14.98321404 48359,6950.219,96.108,573.976,570.193,0.0
56471.0,STARLINK-5521,PAYLOAD,2024-03-20 12:42:54,14.98319717,0.0002404,70.0001,137.8194,247.3632,112.7273,-3.8033e-05,-5.47e-06,0.0,0 STARLINK-5521,1 56471U 23064Z   24080.52979302 -.00000547  00000-0 -38033-4 0  9998,2 56471  70.0001 137.8194 0002404 247.3632 112.7273 14.98319717 48019,6950.225,96.108,573.761,570.419,0.0
56471.0,STARLINK-5521,PAYLOAD,2024-03-21 04:44:14,14.98331576,0.0002775,69.9996,136.1338,266.5489,93.5353,-2.1542e-05,-3.5e-06,0.0,0 STARLINK-5521,1 56471U 23064Z   24081.19738562 -.00000350  00000-0 -21542-4 0  9992,2 56471  69.9996 136.1338 0002775 266.5489  93.5353 14.98331576 48477,6950.188,96.107,573.982,570.124,0.0
56471.0,STARLINK-5521,PAYLOAD,2024-03-21 12:44:53,14.98338444,0.0002624,69.9991,135.2914,261.7894,98.2967,6.0594e-05,6.3e-06,0.0,0 STARLINK-5521,1 56471U 23064Z   24081.53117801  .00000630  00000-0  60594-4 0  9996,2 56471  69.9991 135.2914 0002624 261.7894  98.2967 14.98338444 48522,6950.167,96.106,573.856,570.208,0.0
56471.0,STARLINK-5521,PAYLOAD,2024-03-22 04:46:14,14.98319434,0.0002776,69.9995,133.6084,269.0924,90.9917,0.00032138,3.743e-05,0.0,0 STARLINK-5521,1 56471U 23064Z   24082.19877971  .00003743  00000-0  32138-3 0  9990,2 56471  69.9995 133.6084 0002776 269.0924  90.9917 14.98319434 48622,6950.226,96.108,574.02,570.161,0.0
56471.0,STARLINK-5521,PAYLOAD,2024-03-22 12:46:54,14.98332323,0.000248,69.9995,132.7666,259.5473,100.5407,0.00018358,2.098e-05,0.0,0 STARLINK-5521,1 56471U 23064Z   24082.53257559  .00002098  00000-0  18358-3 0  9992,2 56471  69.9995 132.7666 0002480 259.5473 100.5407 14.98332323 48672,6950.186,96.107,573.774,570.327,0.0
56471.0,STARLINK-5521,PAYLOAD,2024-03-23 04:48:16,14.98299909,0.0002793,70.0023,131.0855,267.5553,92.5286,0.00024321,2.808e-05,0.0,0 STARLINK-5521,1 56471U 23064Z   24083.20019356  .00002808  00000-0  24321-3 0  9994,2 56471  70.0023 131.0855 0002793 267.5553  92.5286 14.98299909 48772,6950.286,96.109,574.092,570.21,0.0
56471.0,STARLINK-5521,PAYLOAD,2024-03-23 12:48:57,14.98322044,0.0002817,69.9993,130.2418,265.7753,94.3084,-0.00014703,-1.846e-05,0.0,0 STARLINK-5521,1 56471U 23064Z   24083.53399409 -.00001846  00000-0 -14703-3 0  9996,2 56471  69.9993 130.2418 0002817 265.7753  94.3084 14.98322044 48829,6950.217,96.108,574.04,570.125,0.0
56471.0,STARLINK-5521,PAYLOAD,2024-03-24 04:50:16,14.98331319,0.0002972,69.9984,128.5563,273.0379,87.044,-2.553e-05,-3.98e-06,0.0,0 STARLINK-5521,1 56471U 23064Z   24084.20158558 -.00000398  00000-0 -25530-4 0  9991,2 56471  69.9984 128.5563 0002972 273.0379  87.0440 14.98331319 48929,6950.189,96.107,574.119,569.988,0.0
56471.0,STARLINK-5521,PAYLOAD,2024-03-24 12:50:56,14.98341681,0.0002887,69.999,127.7168,268.286,91.7968,6.2736e-05,6.56e-06,0.0,0 STARLINK-5521,1 56471U 23064Z   24084.53537573  .00000656  00000-0  62736-4 0  9999,2 56471  69.9990 127.7168 0002887 268.2860  91.7968 14.98341681 48979,6950.157,96.106,574.028,570.015,0.0
56471.0,STARLINK-5521,PAYLOAD,2024-03-25 04:52:17,14.98322899,0.000242,70.0005,126.0358,258.9252,101.1635,0.00017176,1.957e-05,0.0,0 STARLINK-5521,1 56471U 23064Z   24085.20298437  .00001957  00000-0  17176-3 0  9999,2 56471  70.0005 126.0358 0002420 258.9252 101.1635 14.98322899 49075,6950.215,96.107,573.762,570.398,0.0
56471.0,STARLINK-5521,PAYLOAD,2024-03-25 19:17:31,14.98321471,0.0002617,70.0,124.5185,272.6664,87.4196,-5.6081e-06,-1.6e-06,0.0,0 STARLINK-5521,1 56471U 23064Z   24085.80383387 -.00000160  00000-0 -56081-5 0  9991,2 56471  70.0000 124.5185 0002617 272.6664  87.4196 14.98321471 49162,6950.219,96.108,573.903,570.265,0.0
56471.0,STARLINK-5521,PAYLOAD,2024-03-26 12:55:00,14.98322397,0.0002796,69.9994,122.668,271.4639,88.6199,-0.00012324,-1.563e-05,0.0,0 STARLINK-5521,1 56471U 23064Z   24086.53819880 -.00001563  00000-0 -12324-3 0  9992,2 56471  69.9994 122.6680 0002796 271.4639  88.6199 14.98322397 48913,6950.216,96.107,574.025,570.138,0.0
56471.0,STARLINK-5521,PAYLOAD,2024-03-26 19:19:31,14.98355365,0.000258,69.9993,121.9949,275.7639,84.3226,-0.00065379,-7.89e-05,0.0,0 STARLINK-5521,1 56471U 23064Z   24086.80523008 -.00007890  00000-0 -65379-3 0  9993,2 56471  69.9993 121.9949 0002580 275.7639  84.3226 14.98355365 49310,6950.114,96.105,573.773,570.186,0.0
56471.0,STARLINK-5521,PAYLOAD,2024-03-27 04:56:21,14.98321036,0.0002935,69.9987,120.9842,270.3035,89.7787,-5.5801e-05,-7.59e-06,0.0,0 STARLINK-5521,1 56471U 23064Z   24087.20579983 -.00000759  00000-0 -55801-4 0  9998,2 56471  69.9987 120.9842 0002935 270.3035  89.7787 14.98321036 49374,6950.221,96.108,574.126,570.046,0.0
56471.0,STARLINK-5521,PAYLOAD,2024-03-27 11:20:54,14.9831375,0.0003163,69.9983,120.31,274.0394,86.0404,-0.00011171,-1.425e-05,0.0,0 STARLINK-5521,1 56471U 23064Z   24087.47284820 -.00001425  00000-0 -11171-3 0  9992,2 56471  69.9983 120.3100 0003163 274.0394  86.0404 14.98313750 49419,6950.243,96.108,574.307,569.91,0.0
56471.0,STARLINK-5521,PAYLOAD,2024-03-27 19:21:33,14.98324094,0.0003368,69.9982,119.4676,273.587,86.4903,-5.8799e-05,-7.94e-06,0.0,0 STARLINK-5521,1 56471U 23064Z   24087.80664192 -.00000794  00000-0 -58799-4 0  9999,2 56471  69.9982 119.4676 0003368 273.5870  86.4903 14.98324094 49461,6950.211,96.107,574.417,569.735,0.0
56471.0,STARLINK-5521,PAYLOAD,2024-03-28 11:22:53,14.98335694,0.0003306,69.9983,117.7847,274.4614,85.6168,0.00010884,1.206e-05,0.0,0 STARLINK-5521,1 56471U 23064Z   24088.47423322  .00001206  00000-0  10884-3 0  9990,2 56471  69.9983 117.7847 0003306 274.4614  85.6168 14.98335694 49564,6950.175,96.107,574.338,569.743,0.0
